1 66658U 25274J   25332.66391116  .00002484  00000-0  24725-3 0  9990
2 66658  97.7368 260.1152 0012255 330.7019  29.3512 14.92492737   301
1 66658U 25274J   25332.79799791  .00002311  00000-0  23034-3 0  9996
2 66658  97.7369 260.2470 0012240 330.2734  29.7788 14.92493304   321
1 66658U 25274J   25333.20025741  .00002996  00000-0  29701-3 0  9996
2 66658  97.7368 260.6423 0012188 328.8358  31.2137 14.92496768   387
1 66658U 25274J   25333.26730049  .00002814  00000-0  27932-3 0  9999
2 66658  97.7368 260.7081 0012183 328.6147  31.4344 14.92496684   397
1 66658U 25274J   25333.46842891  .00003856  00000-0  38062-3 0  9993
2 66658  97.7370 260.9056 0012108 327.2489  32.7978 14.92495778   429
1 66658U 25274J   25333.80364536  .00002876  00000-0  28535-3 0  9991
2 66658  97.7368 261.2352 0012124 326.7637  33.2819 14.92500087   471
1 66658U 25274J   25334.07181733  .00003497  00000-0  34566-3 0  9998
2 66658  97.7367 261.4987 0012076 325.8271  34.2170 14.92503214   517
1 66658U 25274J   25334.47407433  .00003387  00000-0  33499-3 0  9992
2 66658  97.7368 261.8940 0012029 324.4724  35.5693 14.92505783   570
1 66658U 25274J   25334.54111722  .00003274  00000-0  32396-3 0  9993
2 66658  97.7368 261.9598 0012021 324.2324  35.8088 14.92505907   586
1 66658U 25274J   25334.80928810  .00003235  00000-0  32015-3 0  9991
2 66658  97.7371 262.2233 0012012 323.3126  36.7270 14.92507752   628
1 66658U 25274J   25334.80928811  .00003235  00000-0  32015-3 0  9992
2 66658  97.7371 262.2233 0012012 323.3126  36.7270 14.92507752   628
1 66658U 25274J   25335.21154382  .00004000  00000-0  39447-3 0  9999
2 66658  97.7370 262.6186 0011933 321.9682  38.0693 14.92512416   683
1 66658U 25274J   25335.27858626  .00004060  00000-0  40035-3 0  9998
2 66658  97.7371 262.6844 0011927 321.7565  38.2807 14.92513129   698
1 66658U 25274J   25335.61379874  .00003671  00000-0  36252-3 0  9992
2 66658  97.7372 263.0138 0011894 320.6382  39.3972 14.92514519   743
1 66658U 25274J   25335.74788348  .00003701  00000-0  36543-3 0  9993
2 66658  97.7372 263.1455 0011882 320.2054  39.8293 14.92515678   765
1 66658U 25274J   25336.21717913  .00004544  00000-0  44726-3 0  9994
2 66658  97.7375 263.6066 0011824 318.6018  41.4305 14.92521398   835
1 66658U 25274J   25336.35126338  .00004580  00000-0  45080-3 0  9998
2 66658  97.7376 263.7384 0011816 318.1646  41.8669 14.92522572   857
1 66658U 25274J   25336.35126339  .00004580  00000-0  45080-3 0  9999
2 66658  97.7376 263.7384 0011816 318.1646  41.8669 14.92522572   857
1 66658U 25274J   25336.75351512  .00004881  00000-0  48001-3 0  9996
2 66658  97.7377 264.1337 0011783 316.7606  43.2687 14.92526864   915
1 66658U 25274J   25337.28984962  .00005045  00000-0  49583-3 0  9995
2 66658  97.7381 264.6607 0011744 314.8955  45.1310 14.92531966   999
1 66658U 25274J   25337.35689127  .00005083  00000-0  49949-3 0  9996
2 66658  97.7381 264.7266 0011742 314.6761  45.3500 14.92532646  1004
1 66658U 25274J   25337.75914048  .00005222  00000-0  51297-3 0  9997
2 66658  97.7382 265.1219 0011711 313.2372  46.7869 14.92536816  1069
1 66658U 25274J   25338.29546929  .00007040  00000-0  68930-3 0  9998
2 66658  97.7385 265.6489 0011640 311.4389  48.5829 14.92547645  1142
1 66658U 25274J   25338.29546930  .00007040  00000-0  68930-3 0  9990
2 66658  97.7385 265.6489 0011640 311.4389  48.5829 14.92547645  1142
1 66658U 25274J   25338.76475584  .00006394  00000-0  62659-3 0  9991
2 66658  97.7386 266.1101 0011621 309.7483  50.2712 14.92551657  1211
1 66658U 25274J   25339.03291833  .00006396  00000-0  62673-3 0  9993
2 66658  97.7388 266.3738 0011634 308.5619  51.4557 14.92555062  1251
1 66658U 25274J   25339.30108039  .00005901  00000-0  57864-3 0  9995
2 66658  97.7389 266.6374 0011616 307.5835  52.4328 14.92557518  1299
1 66658U 25274J   25339.77036249  .00005548  00000-0  54430-3 0  9992
2 66658  97.7390 267.0987 0011590 305.7362  54.2779 14.92563389  1363
1 66658U 25274J   25340.17260367  .00004721  00000-0  46397-3 0  9993
2 66658  97.7389 267.4940 0011595 304.2869  55.7252 14.92566191  1428
1 66658U 25274J   25340.50780352  .00004797  00000-0  47136-3 0  9996
2 66658  97.7391 267.8234 0011557 302.9889  57.0218 14.92570037  1472
1 66658U 25274J   25340.77596297  .00004785  00000-0  47015-3 0  9991
2 66658  97.7391 268.0870 0011554 301.9626  58.0469 14.92572861  1517
1 66658U 25274J   25341.04412230  .00004287  00000-0  42181-3 0  9992
2 66658  97.7391 268.3507 0011554 300.9885  59.0198 14.92574092  1555
1 66658U 25274J   25341.78155815  .00004456  00000-0  43816-3 0  9990
2 66658  97.7389 269.0756 0011586 298.0555  61.9492 14.92580815  1663
1 66658U 25274J   25342.25083444  .00003932  00000-0  38727-3 0  9994
2 66658  97.7387 269.5369 0011583 296.1816  63.8212 14.92583165  1732
1 66658U 25274J   25342.78714895  .00004657  00000-0  45754-3 0  9996
2 66658  97.7386 270.0641 0011553 294.1578  65.8433 14.92588768  1811
1 66658U 25274J   25342.78714895  .00004657  00000-0  45754-3 0  9996
2 66658  97.7386 270.0641 0011553 294.1578  65.8433 14.92588768  1811
1 66658U 25274J   25343.25642280  .00004317  00000-0  42449-3 0  9998
2 66658  97.7385 270.5255 0011536 292.2677  67.7318 14.92591499  1881
1 66658U 25274J   25343.32346185  .00004369  00000-0  42957-3 0  9992
2 66658  97.7385 270.5914 0011532 292.0214  67.9780 14.92592094  1892
1 66658U 25274J   25343.59161779  .00004485  00000-0  44076-3 0  9998
2 66658  97.7384 270.8551 0011520 291.0278  68.9708 14.92594221  1937
1 66658U 25274J   25343.59161780  .00004485  00000-0  44076-3 0  9990
2 66658  97.7384 270.8551 0011520 291.0278  68.9708 14.92594222  1938
1 66658U 25274J   25344.06088918  .00004153  00000-0  40856-3 0  9998
2 66658  97.7384 271.3164 0011512 289.1224  70.8749 14.92597463  2000
1 66658U 25274J   25344.19496659  .00004470  00000-0  43925-3 0  9999
2 66658  97.7384 271.4482 0011497 288.6071  71.3899 14.92599320  2028
1 66658U 25274J   25344.32904391  .00004495  00000-0  44167-3 0  9997
2 66658  97.7383 271.5800 0011492 288.0927  71.9040 14.92600467  2042
1 66658U 25274J   25344.53015979  .00004589  00000-0  45076-3 0  9999
2 66658  97.7383 271.7778 0011481 287.3729  72.6234 14.92602161  2077
1 66658U 25274J   25344.66423678  .00004673  00000-0  45894-3 0  9994
2 66658  97.7383 271.9095 0011474 286.8459  73.1502 14.92603554  2090
1 66658U 25274J   25344.66423679  .00004673  00000-0  45894-3 0  9995
2 66658  97.7383 271.9095 0011474 286.8459  73.1502 14.92603554  2090
1 66658U 25274J   25345.26758157  .00005240  00000-0  51381-3 0  9993
2 66658  97.7382 272.5027 0011425 284.4854  75.5098 14.92610653  2184
1 66658U 25274J   25345.60277249  .00004835  00000-0  47452-3 0  9992
2 66658  97.7381 272.8321 0011399 283.2197  76.7750 14.92612623  2233
1 66658U 25274J   25345.73684869  .00004796  00000-0  47071-3 0  9999
2 66658  97.7381 272.9639 0011373 282.7492  77.2456 14.92613825  2256
1 66658U 25274J   25346.27315145  .00004921  00000-0  48276-3 0  9995
2 66658  97.7381 273.4912 0011319 280.6697  79.3247 14.92619719  2338
1 66658U 25274J   25346.87648998  .00004984  00000-0  48884-3 0  9990
2 66658  97.7382 274.0843 0011263 278.3932  81.6010 14.92625953  2424
1 66658U 25274J   25347.27871417  .00005055  00000-0  49567-3 0  9998
2 66658  97.7383 274.4797 0011226 276.8376  83.1566 14.92630391  2482
1 66658U 25274J   25347.61390098  .00004232  00000-0  41586-3 0  9996
2 66658  97.7384 274.8092 0011203 275.6136  84.3805 14.92631279  2532
1 66658U 25274J   25347.88204939  .00004073  00000-0  40041-3 0  9991
2 66658  97.7386 275.0726 0011207 274.5849  85.4090 14.92633625  2573
1 66658U 25274J   25348.28427134  .00004097  00000-0  40276-3 0  9996
2 66658  97.7387 275.4680 0011166 273.0269  86.9673 14.92637558  2630
1 66658U 25274J   25348.35130829  .00004063  00000-0  39943-3 0  9998
2 66658  97.7387 275.5339 0011163 272.7846  87.2096 14.92638037  2643
1 66658U 25274J   25349.35686107  .00002773  00000-0  27441-3 0  9990
2 66658  97.7390 276.5223 0011086 269.0154  90.9795 14.92642616  2796
1 66658U 25274J   25349.75908082  .00002736  00000-0  27079-3 0  9999
2 66658  97.7391 276.9178 0011124 267.5727  92.4219 14.92644507  2858
1 66658U 25274J   25350.29537299  .00002541  00000-0  25187-3 0  9990
2 66658  97.7393 277.4449 0011108 265.6199  94.3752 14.92647627  2939
1 66658U 25274J   25350.76462765  .00002388  00000-0  23698-3 0  9991
2 66658  97.7393 277.9063 0011144 263.8551  96.1399 14.92650133  3000